[Satellite]
VERSION=1.1
NAME=IRIDIUM 24 [-]
NICKNAME=IRIDIUM 24 [-]
TLE1=1 25105U 97082B   18020.83870596  .00000096  00000-0  24229-4 0  9994
TLE2=2 25105  86.3944 143.5860 0011177 358.8695   1.2477 14.39899161 53928
